{
    "links": {
        "self": "http://www.neowsapp.com/rest/v1/neo/3774094?api_key=iIulBulltgU6a56xZRHN4H3l9WmuAYTsLGpBGhQ2"
    },
    "id": "3774094",
    "neo_reference_id": "3774094",
    "name": "(2017 HU3)",
    "designation": "2017 HU3",
    "nasa_jpl_url": "http://ssd.jpl.nasa.gov/sbdb.cgi?sstr=3774094",
    "absolute_magnitude_h": 25.2,
    "estimated_diameter": {
        "kilometers": {
            "estimated_diameter_min": 0.0242412481,
            "estimated_diameter_max": 0.0542050786
        },
        "meters": {
            "estimated_diameter_min": 24.2412481101,
            "estimated_diameter_max": 54.2050786336
        },
        "miles": {
            "estimated_diameter_min": 0.0150628086,
            "estimated_diameter_max": 0.0336814639
        },
        "feet": {
            "estimated_diameter_min": 79.5316564495,
            "estimated_diameter_max": 177.8381901842
        }
    },
    "is_potentially_hazardous_asteroid": false,
    "close_approach_data": [
        {
            "close_approach_date": "2009-07-28",
            "close_approach_date_full": "2009-Jul-28 06:42",
            "epoch_date_close_approach": 1248763320000,
            "relative_velocity": {
                "kilometers_per_second": "20.3896771602",
                "kilometers_per_hour": "73402.8377766505",
                "miles_per_hour": "45609.6688396082"
            },
            "miss_distance": {
                "astronomical": "0.422419089",
                "lunar": "164.321025621",
                "kilometers": "63192995.96174043",
                "miles": "39266306.887780734"
            },
            "orbiting_body": "Earth"
        },
        {
            "close_approach_date": "2017-04-30",
            "close_approach_date_full": "2017-Apr-30 02:26",
            "epoch_date_close_approach": 1493519160000,
            "relative_velocity": {
                "kilometers_per_second": "8.9350339474",
                "kilometers_per_hour": "32166.1222106335",
                "miles_per_hour": "19986.777436935"
            },
            "miss_distance": {
                "astronomical": "0.0157403197",
                "lunar": "6.1229843633",
                "kilometers": "2354718.300239039",
                "miles": "1463154.1044111782"
            },
            "orbiting_body": "Earth"
        }
    ],
    "orbital_data": {
        "orbit_id": "7",
        "orbit_determination_date": "2017-05-13 06:43:35",
        "first_observation_date": "2017-04-24",
        "last_observation_date": "2017-05-01",
        "data_arc_in_days": 7,
        "observations_used": 54,
        "orbit_uncertainty": "7",
        "minimum_orbit_intersection": ".0114193",
        "jupiter_tisserand_invariant": "3.787",
        "epoch_osculation": "2459000.5",
        "eccentricity": ".4839270813441668",
        "semi_major_axis": "1.901552694443326",
        "inclination": "6.818626932994431",
        "ascending_node_longitude": "46.56469325080742",
        "orbital_period": "957.7694363184831",
        "perihelion_distance": ".9813398489992308",
        "perihelion_argument": "195.6584888471925",
        "aphelion_distance": "2.821765539887421",
        "perihelion_time": "2458849.892428147372",
        "mean_anomaly": "56.60937153659263",
        "mean_motion": ".3758733431542606",
        "equinox": "J2000",
        "orbit_class": {
            "orbit_class_type": "APO",
            "orbit_class_description": "Near-Earth asteroid orbits which cross the Earth’s orbit similar to that of 1862 Apollo",
            "orbit_class_range": "a (semi-major axis) > 1.0 AU; q (perihelion) < 1.017 AU"
        }
    },
    "is_sentry_object": false
}